# Made by eph2tle, compiled Feb 24 2022 17:07:51
# Run at Sun Feb 27 19:00:12 2022
#
# No updates      (we've lost this one)
#
#    The following TLEs (Two-Line Elements) were generated by fitting
# a numerically-integrated ephemeris,  based on the orbit given below,
# to the SDP4/SGP4 models.  Each TLE is good for the interval between
# its epoch and the epoch of the subsequent TLE (usually one day).
# The maximum deviation between the numerically integrated ephemerides
# and the TLE-based ephemeris, in kilometers,  is given for each TLE
# as the "worst residual".
#
#    This fitting is done using the 'eph2tle' code packaged with Find_Orb.
# The code has details on how the TLEs were computed :
#
#    https://github.com/Bill-Gray/find_orb/eph2tle.cpp
#
#    Be warned:  the error given is that between the numerically
# integrated ephems and the TLE model.  There will usually be at
# least some additional difference between the ephems and the actual
# motion of the satellite,  especially if the ephemerides are based
# on a short arc.  If the following orbital elements say something
# like "[based on] 10 observations 2015 Jan. 1-13",  and the TLEs
# are for 2015 May,  the extrapolation may be tenuous at best.  If
# your application requires a specific level of accuracy,  you may
# want to contact me;  I can give you some idea as to the fit of the
# underlying data (and possibly TLEs based on newer data).
#
#   You can usually find the underlying observational data,  and the
# fitted orbit,  residuals,  ephemerides,  and sometimes some comments
# about the object,  among the pages listed at
#
#    https://www.projectpluto.com/pluto/mpecs/pseudo.htm
#
#    WARNING:  for this object,  "normal" TLEs cannot be fitted.  (This
# usually means an object with an hyperbolic or nearly-parabolic orbit.)
# For this and similar cases,   an alternative model is used,  in which
# most of the traditional TLE data is replaced by six signed 8-digit hex
# numbers.  These six numbers are a state vector,  numerically integrated
# using a simplified force model.  This is necessary for objects at L2 or
# L1,  and sometimes for objects in high orbits where the SDP4/SGP4 model
# fails.  Some documentation is in 'get_el.cpp' in the source code at
# https://www.github.com/Bill-Gray/sat_code ; look for 'hex' in that file,
# with the actual integration done in 'sdp4.cpp'.  But be aware:  it's my
# own extension,  doesn't work with other code,  and is therefore used
# only when necessary.
#
#    Also,  if you use a TLE outside the "correct" time range (between
# its MJD and that of the next TLE),  all bets are off.  I've carefully
# computed and minimized the worst error over the "correct" time frame,
# but the ephemeris may (or may not) diverge wildly outside of it.
#
# Ephem range: 59543.000000 59945.000000 1.000000
# Created Sun Feb 27 19:00:10 2022
# Ephemeris start: 25 Nov 2021  0:00:00
# Ephemeris end:    1 Jan 2023  0:00:00
# Times are all TDT
# Positions/velocities are in equatorial J2000
# Orbital elements:  DART Booster = NORAD 49498 = 2021-110B
#    Perihelion 2022 Feb 4.92078 +/- 0.000279 TT = 22:05:55 (JD 2459615.42078)
# Epoch 2021 Nov 29.0 TT = JDT 2459547.5   Earth MOID: 0.0002   Find_Orb
# M 293.49566881 +/- 0.0008           (J2000 ecliptic)
# n   0.97914558 +/- 8.95e-6          Peri.   78.96952 +/- 0.0015
# a   1.00439498 +/- 6.12e-6          Node    61.55231 +/- 0.00029
# e   0.0674218 +/- 2.47e-5           Incl.    3.96658 +/- 0.0017
# P   1.01/367.66d           H 23.8   G  0.15   U  4.9
# q 0.93667683 +/- 1.91e-5    Q 1.07211313 +/- 3.13e-5
# 14 of 15 observations 2021 Nov. 24-Dec. 3; mean residual 0".241
#
# 1 NoradU COSPAR   Epoch.epoch     dn/dt/2  d2n/dt2/6 BSTAR    T El# C
# 2 NoradU Inclina RAAscNode Eccent  ArgPeri MeanAno  MeanMotion Rev# C

# Worst residual: 4.95 km
# MJD 59543.000000 (2021 Nov 25  0:00)
DART Booster = NORAD 49498 = 2021-110B
1 49498U 21110B   21328.99919926 -001BIM0R -003ASTGH +001LK1BNH 15206
2 49498                          -00057WZA -000FF2UA +00094Q0N     05

# Worst residual: 8.29 km
# MJD 59544.000000 (2021 Nov 26  0:00)
DART Booster = NORAD 49498 = 2021-110B
1 49498U 21110B   21329.99919926 -002HJ0NN -006S4RLZ +003ODPRYH 15206
2 49498                          -0004NDJ1 -000DY8D1 +0008CVIF     00

# Worst residual: 2.02 km
# MJD 59545.000000 (2021 Nov 27  0:00)
DART Booster = NORAD 49498 = 2021-110B
1 49498U 21110B   21330.99919926 -003KTW8C -00A2E4H8 +005N7YDUH 15200
2 49498                          -0004GZU9 -000DHKLT +00082MSV     01

# Worst residual: 0.50 km
# MJD 59546.000000 (2021 Nov 28  0:00)
DART Booster = NORAD 49498 = 2021-110B
1 49498U 21110B   21331.99919926 -004N1IOA -00D9UYQT +007K7UZ6H 15208
2 49498                          -0004DQ8S -000D9HA0 +0007WREB     06

# Worst residual: 0.26 km
# MJD 59547.000000 (2021 Nov 29  0:00)
DART Booster = NORAD 49498 = 2021-110B
1 49498U 21110B   21332.99919926 -005OMUMK -00GFUOKD +009G1G2RH 15202
2 49498                          -0004BOHZ -000D4UAA +0007SLWV     03

# Worst residual: 0.27 km
# MJD 59548.000000 (2021 Nov 30  0:00)
DART Booster = NORAD 49498 = 2021-110B
1 49498U 21110B   21333.99919926 -006PTF85 -00JKYMKP +00BAZ36EH 15204
2 49498                          -0004A968 -000D1Y89 +0007P9V9     08

# Worst residual: 0.31 km
# MJD 59549.000000 (2021 Dec  1  0:00)
DART Booster = NORAD 49498 = 2021-110B
1 49498U 21110B   21334.99919926 -007QPGH8 -00MPIBBW +00D55XYDH 15202
2 49498                          -000497U1 -000D02GW +0007MD33     04

# Worst residual: 0.57 km
# MJD 59550.000000 (2021 Dec  2  0:00)
DART Booster = NORAD 49498 = 2021-110B
1 49498U 21110B   21335.99919926 -008RDTY3 -00PTOOSQ +00EYOPT2H 15201
2 49498                          -00048H06 -000CYTPH +0007JOAW     03

# Worst residual: 0.66 km
# MJD 59551.000000 (2021 Dec  3  0:00)
DART Booster = NORAD 49498 = 2021-110B
1 49498U 21110B   21336.99919926 -009RWVWC -00SXMC94 +00GRKRXRH 15201
2 49498                          -00047ZES -000CY0YG +0007H38B     07

# Worst residual: 0.57 km
# MJD 59552.000000 (2021 Dec  4  0:00)
DART Booster = NORAD 49498 = 2021-110B
1 49498U 21110B   21337.99919926 -00ASCS8O -00W1EN20 +00IJUN2OH 15203
2 49498                          -00047QOY -000CXKQF +0007EIXF     06

# Worst residual: 0.45 km
# MJD 59553.000000 (2021 Dec  5  0:00)
DART Booster = NORAD 49498 = 2021-110B
1 49498U 21110B   21338.99919926 -00BSRMTZ -00Z54EF9 +00KBI7J5H 15201
2 49498                          -00047QMQ -000CXFOO +0007BX2N     08

# Worst residual: 0.68 km
# MJD 59554.000000 (2021 Dec  6  0:00)
DART Booster = NORAD 49498 = 2021-110B
1 49498U 21110B   21339.99919926 -00CT7GBZ -0128U9RD +00M2IV4MH 15205
2 49498                          -00047YNC -000CXLOV +000797OM     02

# Worst residual: 1.02 km
# MJD 59555.000000 (2021 Dec  7  0:00)
DART Booster = NORAD 49498 = 2021-110B
1 49498U 21110B   21340.99919926 -00DTQ21J -015CMY9F +00NSVJRWH 15202
2 49498                          -00048DLU -000CY36P +00076D28     02

# Worst residual: 1.25 km
# MJD 59556.000000 (2021 Dec  8  0:00)
DART Booster = NORAD 49498 = 2021-110B
1 49498U 21110B   21341.99919926 -00EUCX42 -018GL9FC +00PIIU2UH 15201
2 49498                          -00048XUU -000CYWNZ +00073BTZ     00

# Worst residual: 1.67 km
# MJD 59557.000000 (2021 Dec  9  0:00)
DART Booster = NORAD 49498 = 2021-110B
1 49498U 21110B   21342.99919926 -00FV52YR -01BKS46W +00R7F092H 15202
2 49498                          -00049LG3 -000D02EI +000702YT     05

# Worst residual: 1.92 km
# MJD 59558.000000 (2021 Dec 10  0:00)
DART Booster = NORAD 49498 = 2021-110B
1 49498U 21110B   21343.99919926 -00GW33OW -01EPAGI1 +00SVI538H 15201
2 49498                          -0004AACP -000D1KCR +0006WLRO     09

# Worst residual: 1.96 km
# MJD 59559.000000 (2021 Dec 11  0:00)
DART Booster = NORAD 49498 = 2021-110B
1 49498U 21110B   21344.99919926 -00HX728O -01HU76OK +00UIQ6MFH 15205
2 49498                          -0004AYNH -000D3E78 +0006SVTK     06

# Worst residual: 1.87 km
# MJD 59560.000000 (2021 Dec 12  0:00)
DART Booster = NORAD 49498 = 2021-110B
1 49498U 21110B   21345.99919926 -00IYGLPT -01KZL3D0 +00W5108EH 15207
2 49498                          -0004BKLV -000D5JF4 +0006OWX1     08

# Worst residual: 1.73 km
# MJD 59561.000000 (2021 Dec 13  0:00)
DART Booster = NORAD 49498 = 2021-110B
1 49498U 21110B   21346.99919926 -00JZUZ3H -01O5IU39 +00XQCG78H 15206
2 49498                          -0004C2ON -000D7ZDA +0006KP00     07

# Worst residual: 1.62 km
# MJD 59562.000000 (2021 Dec 14  0:00)
DART Booster = NORAD 49498 = 2021-110B
1 49498U 21110B   21347.99919926 -00L1D2XD -01RC2WJ4 +00ZAMCSSH 15201
2 49498                          -0004CFJA -000DAPC1 +0006G84A     01

# Worst residual: 1.58 km
# MJD 59563.000000 (2021 Dec 15  0:00)
DART Booster = NORAD 49498 = 2021-110B
1 49498U 21110B   21348.99919926 -00M2XISE -01UJBLZJ +010TSL2PH 15208
2 49498                          -0004CLYS -000DDOK6 +0006BIED     04

# Worst residual: 1.60 km
# MJD 59564.000000 (2021 Dec 16  0:00)
DART Booster = NORAD 49498 = 2021-110B
1 49498U 21110B   21349.99919926 -00N4IMIX -01XRB32M +012BT1FSH 15207
2 49498                          -0004CKWT -000DGW96 +00066K13     03

# Worst residual: 1.66 km
# MJD 59565.000000 (2021 Dec 17  0:00)
DART Booster = NORAD 49498 = 2021-110B
1 49498U 21110B   21350.99919926 -00O62HAA -021039ED +013SLO61H 15209
2 49498                          -0004CBF8 -000DKBL6 +00061D95     07

# Worst residual: 1.71 km
# MJD 59566.000000 (2021 Dec 18  0:00)
DART Booster = NORAD 49498 = 2021-110B
1 49498U 21110B   21351.99919926 -00P7IYHY -0249PV8J +01584HV7H 15201
2 49498                          -0004BSNV -000DNXOU +0005VYD6     03

# Worst residual: 1.75 km
# MJD 59567.000000 (2021 Dec 19  0:00)
DART Booster = NORAD 49498 = 2021-110B
1 49498U 21110B   21352.99919926 -00Q8TQV2 -027K8F5L +016MBLW7H 15203
2 49498                          -0004AZWU -000DRPNC +0005QBPJ     07

